STARLINK-36803          
1 67893U 26035Q   26063.31248301 -.00229061  21640-4 -44054-3 0  9997
2 67893  97.2755 355.2434 0000738 119.4402 240.6951 16.00394840  2986
STARLINK-36846          
1 67894U 26035R   26063.31091333 -.00232931  22342-4 -44265-3 0  9993
2 67894  97.2752 355.2455 0000855  96.9190 263.2186 16.00605764  2981
STARLINK-36866          
1 67895U 26035S   26063.49783126 -.00255740  26289-4 -49405-3 0  9999
2 67895  97.2751 355.4493 0000995 132.2637 227.8726 16.00322783  3018
STARLINK-36877          
1 67896U 26035T   26063.31166257 -.00251258  25525-4 -48046-3 0  9993
2 67896  97.2754 355.2440 0000578 144.7842 215.3475 16.00502020  2987
STARLINK-36870          
1 67897U 26035U   26063.49703346 -.00234130  22500-4 -44926-3 0  9992
2 67897  97.2744 355.4501 0000940 146.8313 213.3025 16.00436263  3015
STARLINK-36810          
1 67898U 26035V   26063.30880836 -.00280598  31237-4 -52828-3 0  9999
2 67898  97.2753 355.2471 0000957 112.9016 247.2364 16.00780605  2981
STARLINK-36878          
1 67899U 26035W   26063.43260502 -.00077810  45455-5 -14402-3 0  9991
2 67899  97.2745 355.3855 0001142 141.2579 218.8782 16.00953619  3005
STARLINK-36361          
1 67900U 26035X   26063.43191338 -.00080081  46863-5 -14725-3 0  9990
2 67900  97.2747 355.3863 0002126 172.8593 187.2717 16.01069773  3005
STARLINK-36336          
1 67901U 26035Y   26063.36732981 -.00130963  87582-5 -23903-3 0  9994
2 67901  97.2744 355.3203 0001777  37.9588 322.1816 16.01262092  2993
STARLINK-36876          
1 67902U 26035Z   26063.00001156 -.01093955  39445-3 -19706-2 0  9997
2 67902  97.2750 354.9178 0001092 118.7727 276.8029 16.01665708  2846
STARLINK-36257          
1 67903U 26035AA  26063.30566882 -.00310406  37765-4 -56797-3 0  9991
2 67903  97.2739 355.2501 0000633 110.2986 249.8362 16.01284235  2989
STARLINK-36814          
1 67904U 26036A   26063.41668981 -.00055218  00000+0 -26143-3 0  9994
2 67904  42.9945 282.1252 0002826 265.5141 140.3319 15.82005170  2805
STARLINK-36729          
1 67905U 26036B   26063.41668981 -.00005274  00000+0 -22566-4 0  9998
2 67905  42.9943 282.1137 0002337 264.6716 145.4568 15.81974698  2802
STARLINK-36763          
1 67906U 26036C   26063.41668981 -.00028573  00000+0 -13374-3 0  9992
2 67906  42.9941 282.1031 0001822 262.4245 151.9627 15.81993281  2802
STARLINK-36742          
1 67907U 26036D   26063.41668981 -.00059750  00000+0 -28336-3 0  9998
2 67907  42.9945 282.0923 0002584 252.5540 166.1111 15.81997782  2806
STARLINK-36827          
1 67908U 26036E   26063.41668981  .00009683  00000+0  48559-4 0  9997
2 67908  42.9943 282.0817 0002216 251.0785 171.8558 15.81973867  2800
