[{"OBJECT_NAME":"STARLINK-36803","OBJECT_ID":"2026-035Q","EPOCH":"2026-03-04T07:29:58.532064","MEAN_MOTION":16.0039484,"ECCENTRICITY":7.38e-5,"INCLINATION":97.2755,"RA_OF_ASC_NODE":355.2434,"ARG_OF_PERICENTER":119.4402,"MEAN_ANOMALY":240.6951,"EPHEMERIS_TYPE":0,"CLASSIFICATION_TYPE":"U","NORAD_CAT_ID":67893,"ELEMENT_SET_NO":999,"REV_AT_EPOCH":298,"BSTAR":-0.00044054,"MEAN_MOTION_DOT":-0.00229061,"MEAN_MOTION_DDOT":2.164e-5},{"OBJECT_NAME":"STARLINK-36846","OBJECT_ID":"2026-035R","EPOCH":"2026-03-04T07:27:42.911712","MEAN_MOTION":16.00605764,"ECCENTRICITY":8.55e-5,"INCLINATION":97.2752,"RA_OF_ASC_NODE":355.2455,"ARG_OF_PERICENTER":96.919,"MEAN_ANOMALY":263.2186,"EPHEMERIS_TYPE":0,"CLASSIFICATION_TYPE":"U","NORAD_CAT_ID":67894,"ELEMENT_SET_NO":999,"REV_AT_EPOCH":298,"BSTAR":-0.00044265,"MEAN_MOTION_DOT":-0.00232931,"MEAN_MOTION_DDOT":2.2342e-5},{"OBJECT_NAME":"STARLINK-36866","OBJECT_ID":"2026-035S","EPOCH":"2026-03-04T11:56:52.620864","MEAN_MOTION":16.00322783,"ECCENTRICITY":9.95e-5,"INCLINATION":97.2751,"RA_OF_ASC_NODE":355.4493,"ARG_OF_PERICENTER":132.2637,"MEAN_ANOMALY":227.8726,"EPHEMERIS_TYPE":0,"CLASSIFICATION_TYPE":"U","NORAD_CAT_ID":67895,"ELEMENT_SET_NO":999,"REV_AT_EPOCH":301,"BSTAR":-0.00049405,"MEAN_MOTION_DOT":-0.0025574,"MEAN_MOTION_DDOT":2.6289e-5},{"OBJECT_NAME":"STARLINK-36877","OBJECT_ID":"2026-035T","EPOCH":"2026-03-04T07:28:47.646048","MEAN_MOTION":16.0050202,"ECCENTRICITY":5.78e-5,"INCLINATION":97.2754,"RA_OF_ASC_NODE":355.244,"ARG_OF_PERICENTER":144.7842,"MEAN_ANOMALY":215.3475,"EPHEMERIS_TYPE":0,"CLASSIFICATION_TYPE":"U","NORAD_CAT_ID":67896,"ELEMENT_SET_NO":999,"REV_AT_EPOCH":298,"BSTAR":-0.00048046,"MEAN_MOTION_DOT":-0.00251258,"MEAN_MOTION_DDOT":2.5525e-5},{"OBJECT_NAME":"STARLINK-36870","OBJECT_ID":"2026-035U","EPOCH":"2026-03-04T11:55:43.690944","MEAN_MOTION":16.00436263,"ECCENTRICITY":9.4e-5,"INCLINATION":97.2744,"RA_OF_ASC_NODE":355.4501,"ARG_OF_PERICENTER":146.8313,"MEAN_ANOMALY":213.3025,"EPHEMERIS_TYPE":0,"CLASSIFICATION_TYPE":"U","NORAD_CAT_ID":67897,"ELEMENT_SET_NO":999,"REV_AT_EPOCH":301,"BSTAR":-0.00044926,"MEAN_MOTION_DOT":-0.0023413,"MEAN_MOTION_DDOT":2.25e-5},{"OBJECT_NAME":"STARLINK-36810","OBJECT_ID":"2026-035V","EPOCH":"2026-03-04T07:24:41.042304","MEAN_MOTION":16.00780605,"ECCENTRICITY":9.57e-5,"INCLINATION":97.2753,"RA_OF_ASC_NODE":355.2471,"ARG_OF_PERICENTER":112.9016,"MEAN_ANOMALY":247.2364,"EPHEMERIS_TYPE":0,"CLASSIFICATION_TYPE":"U","NORAD_CAT_ID":67898,"ELEMENT_SET_NO":999,"REV_AT_EPOCH":298,"BSTAR":-0.00052828,"MEAN_MOTION_DOT":-0.00280598,"MEAN_MOTION_DDOT":3.1237e-5},{"OBJECT_NAME":"STARLINK-36878","OBJECT_ID":"2026-035W","EPOCH":"2026-03-04T10:22:57.073728","MEAN_MOTION":16.00953619,"ECCENTRICITY":0.0001142,"INCLINATION":97.2745,"RA_OF_ASC_NODE":355.3855,"ARG_OF_PERICENTER":141.2579,"MEAN_ANOMALY":218.8782,"EPHEMERIS_TYPE":0,"CLASSIFICATION_TYPE":"U","NORAD_CAT_ID":67899,"ELEMENT_SET_NO":999,"REV_AT_EPOCH":300,"BSTAR":-0.00014402,"MEAN_MOTION_DOT":-0.0007781,"MEAN_MOTION_DDOT":4.5455e-6},{"OBJECT_NAME":"STARLINK-36361","OBJECT_ID":"2026-035X","EPOCH":"2026-03-04T10:21:57.316032","MEAN_MOTION":16.01069773,"ECCENTRICITY":0.0002126,"INCLINATION":97.2747,"RA_OF_ASC_NODE":355.3863,"ARG_OF_PERICENTER":172.8593,"MEAN_ANOMALY":187.2717,"EPHEMERIS_TYPE":0,"CLASSIFICATION_TYPE":"U","NORAD_CAT_ID":67900,"ELEMENT_SET_NO":999,"REV_AT_EPOCH":300,"BSTAR":-0.00014725,"MEAN_MOTION_DOT":-0.00080081,"MEAN_MOTION_DDOT":4.6863e-6},{"OBJECT_NAME":"STARLINK-36336","OBJECT_ID":"2026-035Y","EPOCH":"2026-03-04T08:48:57.295584","MEAN_MOTION":16.01262092,"ECCENTRICITY":0.0001777,"INCLINATION":97.2744,"RA_OF_ASC_NODE":355.3203,"ARG_OF_PERICENTER":37.9588,"MEAN_ANOMALY":322.1816,"EPHEMERIS_TYPE":0,"CLASSIFICATION_TYPE":"U","NORAD_CAT_ID":67901,"ELEMENT_SET_NO":999,"REV_AT_EPOCH":299,"BSTAR":-0.00023903,"MEAN_MOTION_DOT":-0.00130963,"MEAN_MOTION_DDOT":8.7582e-6},{"OBJECT_NAME":"STARLINK-36876","OBJECT_ID":"2026-035Z","EPOCH":"2026-03-04T00:00:00.998784","MEAN_MOTION":16.01665708,"ECCENTRICITY":0.0001092,"INCLINATION":97.275,"RA_OF_ASC_NODE":354.9178,"ARG_OF_PERICENTER":118.7727,"MEAN_ANOMALY":276.8029,"EPHEMERIS_TYPE":0,"CLASSIFICATION_TYPE":"U","NORAD_CAT_ID":67902,"ELEMENT_SET_NO":999,"REV_AT_EPOCH":284,"BSTAR":-0.0019706,"MEAN_MOTION_DOT":-0.01093955,"MEAN_MOTION_DDOT":0.00039445},{"OBJECT_NAME":"STARLINK-36257","OBJECT_ID":"2026-035AA","EPOCH":"2026-03-04T07:20:09.786048","MEAN_MOTION":16.01284235,"ECCENTRICITY":6.33e-5,"INCLINATION":97.2739,"RA_OF_ASC_NODE":355.2501,"ARG_OF_PERICENTER":110.2986,"MEAN_ANOMALY":249.8362,"EPHEMERIS_TYPE":0,"CLASSIFICATION_TYPE":"U","NORAD_CAT_ID":67903,"ELEMENT_SET_NO":999,"REV_AT_EPOCH":298,"BSTAR":-0.00056797,"MEAN_MOTION_DOT":-0.00310406,"MEAN_MOTION_DDOT":3.7765e-5},{"OBJECT_NAME":"STARLINK-36814","OBJECT_ID":"2026-036A","EPOCH":"2026-03-04T10:00:01.999584","MEAN_MOTION":15.8200517,"ECCENTRICITY":0.0002826,"INCLINATION":42.9945,"RA_OF_ASC_NODE":282.1252,"ARG_OF_PERICENTER":265.5141,"MEAN_ANOMALY":140.3319,"EPHEMERIS_TYPE":0,"CLASSIFICATION_TYPE":"U","NORAD_CAT_ID":67904,"ELEMENT_SET_NO":999,"REV_AT_EPOCH":280,"BSTAR":-0.00026143,"MEAN_MOTION_DOT":-0.00055218,"MEAN_MOTION_DDOT":0},{"OBJECT_NAME":"STARLINK-36729","OBJECT_ID":"2026-036B","EPOCH":"2026-03-04T10:00:01.999584","MEAN_MOTION":15.81974698,"ECCENTRICITY":0.0002337,"INCLINATION":42.9943,"RA_OF_ASC_NODE":282.1137,"ARG_OF_PERICENTER":264.6716,"MEAN_ANOMALY":145.4568,"EPHEMERIS_TYPE":0,"CLASSIFICATION_TYPE":"U","NORAD_CAT_ID":67905,"ELEMENT_SET_NO":999,"REV_AT_EPOCH":280,"BSTAR":-2.2566e-5,"MEAN_MOTION_DOT":-5.274e-5,"MEAN_MOTION_DDOT":0},{"OBJECT_NAME":"STARLINK-36763","OBJECT_ID":"2026-036C","EPOCH":"2026-03-04T10:00:01.999584","MEAN_MOTION":15.81993281,"ECCENTRICITY":0.0001822,"INCLINATION":42.9941,"RA_OF_ASC_NODE":282.1031,"ARG_OF_PERICENTER":262.4245,"MEAN_ANOMALY":151.9627,"EPHEMERIS_TYPE":0,"CLASSIFICATION_TYPE":"U","NORAD_CAT_ID":67906,"ELEMENT_SET_NO":999,"REV_AT_EPOCH":280,"BSTAR":-0.00013374,"MEAN_MOTION_DOT":-0.00028573,"MEAN_MOTION_DDOT":0},{"OBJECT_NAME":"STARLINK-36742","OBJECT_ID":"2026-036D","EPOCH":"2026-03-04T10:00:01.999584","MEAN_MOTION":15.81997782,"ECCENTRICITY":0.0002584,"INCLINATION":42.9945,"RA_OF_ASC_NODE":282.0923,"ARG_OF_PERICENTER":252.554,"MEAN_ANOMALY":166.1111,"EPHEMERIS_TYPE":0,"CLASSIFICATION_TYPE":"U","NORAD_CAT_ID":67907,"ELEMENT_SET_NO":999,"REV_AT_EPOCH":280,"BSTAR":-0.00028336,"MEAN_MOTION_DOT":-0.0005975,"MEAN_MOTION_DDOT":0},{"OBJECT_NAME":"STARLINK-36827","OBJECT_ID":"2026-036E","EPOCH":"2026-03-04T10:00:01.999584","MEAN_MOTION":15.81973867,"ECCENTRICITY":0.0002216,"INCLINATION":42.9943,"RA_OF_ASC_NODE":282.0817,"ARG_OF_PERICENTER":251.0785,"MEAN_ANOMALY":171.8558,"EPHEMERIS_TYPE":0,"CLASSIFICATION_TYPE":"U","NORAD_CAT_ID":67908,"ELEMENT_SET_NO":999,"REV_AT_EPOCH":280,"BSTAR":4.8559e-5,"MEAN_MOTION_DOT":9.683e-5,"MEAN_MOTION_DDOT":0}]
